{
    "links": {
        "self": "http://www.neowsapp.com/rest/v1/neo/3727173?api_key=iIulBulltgU6a56xZRHN4H3l9WmuAYTsLGpBGhQ2"
    },
    "id": "3727173",
    "neo_reference_id": "3727173",
    "name": "(2015 RC36)",
    "designation": "2015 RC36",
    "nasa_jpl_url": "http://ssd.jpl.nasa.gov/sbdb.cgi?sstr=3727173",
    "absolute_magnitude_h": 25.1,
    "estimated_diameter": {
        "kilometers": {
            "estimated_diameter_min": 0.0253837029,
            "estimated_diameter_max": 0.0567596853
        },
        "meters": {
            "estimated_diameter_min": 25.3837029364,
            "estimated_diameter_max": 56.7596852866
        },
        "miles": {
            "estimated_diameter_min": 0.0157726969,
            "estimated_diameter_max": 0.0352688224
        },
        "feet": {
            "estimated_diameter_min": 83.279867942,
            "estimated_diameter_max": 186.2194458756
        }
    },
    "is_potentially_hazardous_asteroid": false,
    "close_approach_data": [
        {
            "close_approach_date": "2015-08-17",
            "close_approach_date_full": "2015-Aug-17 19:59",
            "epoch_date_close_approach": 1439841540000,
            "relative_velocity": {
                "kilometers_per_second": "7.2416783966",
                "kilometers_per_hour": "26070.0422276847",
                "miles_per_hour": "16198.9104053077"
            },
            "miss_distance": {
                "astronomical": "0.1140458608",
                "lunar": "44.3638398512",
                "kilometers": "17061017.857996496",
                "miles": "10601224.9116278048"
            },
            "orbiting_body": "Earth"
        }
    ],
    "orbital_data": {
        "orbit_id": "5",
        "orbit_determination_date": "2020-02-10 04:51:36",
        "first_observation_date": "2015-09-09",
        "last_observation_date": "2015-09-17",
        "data_arc_in_days": 8,
        "observations_used": 16,
        "orbit_uncertainty": "9",
        "minimum_orbit_intersection": ".114978",
        "jupiter_tisserand_invariant": "3.531",
        "epoch_osculation": "2457820.5",
        "eccentricity": ".4888250938291459",
        "semi_major_axis": "2.148482518716353",
        "inclination": "8.537383183317392",
        "ascending_node_longitude": "347.5691449879192",
        "orbital_period": "1150.260386281502",
        "perihelion_distance": "1.098250349914552",
        "perihelion_argument": "323.3657706074682",
        "aphelion_distance": "3.198714687518153",
        "perihelion_time": "2458389.828607168765",
        "mean_anomaly": "181.8157375276278",
        "mean_motion": ".3129726141085221",
        "equinox": "J2000",
        "orbit_class": {
            "orbit_class_type": "AMO",
            "orbit_class_description": "Near-Earth asteroid orbits similar to that of 1221 Amor",
            "orbit_class_range": "1.017 AU < q (perihelion) < 1.3 AU"
        }
    },
    "is_sentry_object": false
}